<?xml version="1.0" encoding="UTF-8"?>
<osm version="0.6" generator="Overpass API 0.7.56.7 b85c4387">
<note>The data included in this document is from www.openstreetmap.org. The data is made available under ODbL.</note>
<meta osm_base="2021-02-26T10:30:13Z" areas="2021-02-26T10:07:47Z"/>

<action type="modify">
<old>
  <node id="8298271820" lat="44.1247723" lon="11.0199062" version="3" timestamp="2021-01-07T08:58:32Z" changeset="97095964" uid="251543" user="ChrissW-R1">
    <tag k="tourism" v="information"/>
    <tag k="destination" v="Lizzo (bivio 157) 00:45;La Serra (bivio 167A) 01:30;Riola 04:15|Pontaccio 00:45;Pavana 01:00;Ponte Venturina 01:00"/>
    <tag k="ele" v="630"/>
    <tag k="information" v="guidepost"/>
    <tag k="name" v="Cà del Cucco 1"/>
    <tag k="operator" v="CAI Porretta Terme"/>
    <tag k="source" v="survey:CAI"/>
    <tag k="source_ref" v="9224018"/>
    <tag k="support" v="street_furniture:transit_shelter"/>
  </node>
</old>
<new>
  <node id="8298271820" lat="44.1247723" lon="11.0199062" version="4" timestamp="2021-02-25T19:58:00Z" changeset="100001353" uid="5641976" user="MauroL">
    <tag k="destination" v="Lizzo (bivio 157) 00:45;La Serra (bivio 167A) 01:30;Riola 04:15|Pontaccio 00:45;Pavana 01:00;Ponte Venturina 01:00"/>
    <tag k="ele" v="630"/>
    <tag k="information" v="guidepost"/>
    <tag k="name" v="Cà del Cucco 1"/>
    <tag k="operator" v="CAI Porretta Terme"/>
    <tag k="source" v="survey:CAI"/>
    <tag k="source_ref" v="9224018"/>
    <tag k="support" v="street_furniture:transit_shelter"/>
    <tag k="tourism" v="information"/>
    <tag k="wikimedia_commons" v="File:CAI 167 Cà del Cucco Segnavia 01.jpg"/>
  </node>
</new>
</action>
<action type="modify">
<old>
  <node id="8298350227" lat="44.1244257" lon="11.0203129" version="2" timestamp="2021-01-07T08:58:32Z" changeset="97095964" uid="251543" user="ChrissW-R1">
    <tag k="tourism" v="information"/>
    <tag k="destination" v="167A C. Casio ore 02:45;167 Riola ore 04:30|167 B. Taona 08:30"/>
    <tag k="ele" v="630"/>
    <tag k="information" v="guidepost"/>
    <tag k="name" v="Cà del Cucco 2"/>
    <tag k="operator" v="CAI Porretta Terme"/>
    <tag k="source" v="survey:CAI"/>
    <tag k="source_ref" v="9224018"/>
    <tag k="support" v="pole"/>
  </node>
</old>
<new>
  <node id="8298350227" lat="44.1244257" lon="11.0203129" version="3" timestamp="2021-02-25T19:58:00Z" changeset="100001353" uid="5641976" user="MauroL">
    <tag k="destination" v="167A C. Casio ore 02:45;167 Riola ore 04:30|167 B. Taona 08:30"/>
    <tag k="ele" v="630"/>
    <tag k="information" v="guidepost"/>
    <tag k="name" v="Cà del Cucco 2"/>
    <tag k="operator" v="CAI Porretta Terme"/>
    <tag k="source" v="survey:CAI"/>
    <tag k="source_ref" v="9224018"/>
    <tag k="support" v="pole"/>
    <tag k="tourism" v="information"/>
    <tag k="wikimedia_commons" v="File:CAI 167 Cà del Cucco Segnavia 02.jpg"/>
  </node>
</new>
</action>

</osm>
